{"type": "FeatureCollection", "features": [ {"type": "Feature", "properties": {"norad_id": 37550, "name": "IRIDIUM 33 DEB", "group": "iridium-33-debris", "lat": 53.22453431573563, "lon": -159.64243259107272, "alt_km": 661.5653084577316, "timestamp": "2025-12-09T16:56:36.959867+00:00", "meta": {"OBJECT_NAME": "IRIDIUM 33 DEB", "OBJECT_ID": "1997-051XK", "EPOCH": "2025-12-06T21:15:18.690336", "MEAN_MOTION": 14.67089693, "ECCENTRICITY": 0.00053572, "INCLINATION": 86.377, "RA_OF_ASC_NODE": 26.47, "ARG_OF_PERICENTER": 124.88, "MEAN_ANOMALY": 235.2918, "EPHEMERIS_TYPE": 0, "CLASSIFICATION_TYPE": "U", "NORAD_CAT_ID": 37550, "ELEMENT_SET_NO": 999, "REV_AT_EPOCH": 86247, "BSTAR": 0.0020360196, "MEAN_MOTION_DOT": 0.00011461, "MEAN_MOTION_DDOT": 0}, "tle": {"line1": "1 37550U 97051XK  25340.88563299  .00011461  00000+0  20360-2 0  9991", "line2": "2 37550  86.3770  26.4700 0005357 124.8800 235.2918 14.67089693862475"}}, "geometry": {"type": "Point", "coordinates": [-159.64243259107272, 53.22453431573563]}}, {"type": "Feature", "properties": {"norad_id": 37562, "name": "IRIDIUM 33 DEB", "group": "iridium-33-debris", "lat": 85.85917411800418, "lon": 163.78171679284833, "alt_km": 680.0471513770353, "timestamp": "2025-12-09T16:56:36.959878+00:00", "meta": {"OBJECT_NAME": "IRIDIUM 33 DEB", "OBJECT_ID": "1997-051XX", "EPOCH": "2025-12-07T12:03:22.182048", "MEAN_MOTION": 14.56401675, "ECCENTRICITY": 0.00267128, "INCLINATION": 86.3743, "RA_OF_ASC_NODE": 45.8843, "ARG_OF_PERICENTER": 124.2165, "MEAN_ANOMALY": 301.4124, "EPHEMERIS_TYPE": 0, "CLASSIFICATION_TYPE": "U", "NORAD_CAT_ID": 37562, "ELEMENT_SET_NO": 999, "REV_AT_EPOCH": 86252, "BSTAR": 0.0018073618, "MEAN_MOTION_DOT": 8.081e-05, "MEAN_MOTION_DDOT": 0}, "tle": {"line1": "1 37562U 97051XX  25341.50234007  .00008081  00000+0  18074-2 0  9999", "line2": "2 37562  86.3743  45.8843 0026712 124.2165 301.4124 14.56401675862524"}}, "geometry": {"type": "Point", "coordinates": [163.78171679284833, 85.85917411800418]}}, {"type": "Feature", "properties": {"norad_id": 37565, "name": "IRIDIUM 33 DEB", "group": "iridium-33-debris", "lat": -72.96341182708343, "lon": -1.1258849928575818, "alt_km": 738.7033735384466, "timestamp": "2025-12-09T16:56:36.959888+00:00", "meta": {"OBJECT_NAME": "IRIDIUM 33 DEB", "OBJECT_ID": "1997-051YA", "EPOCH": "2025-12-09T09:00:32.620320", "MEAN_MOTION": 14.51496664, "ECCENTRICITY": 0.0015295, "INCLINATION": 86.3494, "RA_OF_ASC_NODE": 11.0435, "ARG_OF_PERICENTER": 94.02, "MEAN_ANOMALY": 266.2754, "EPHEMERIS_TYPE": 0, "CLASSIFICATION_TYPE": "U", "NORAD_CAT_ID": 37565, "ELEMENT_SET_NO": 999, "REV_AT_EPOCH": 65788, "BSTAR": 0.00087734, "MEAN_MOTION_DOT": 3.53e-05, "MEAN_MOTION_DDOT": 0}, "tle": {"line1": "1 37565U 97051YA  25343.37537755  .00003530  00000+0  87734-3 0  9999", "line2": "2 37565  86.3494  11.0435 0015295  94.0200 266.2754 14.51496664657885"}}, "geometry": {"type": "Point", "coordinates": [-1.1258849928575818, -72.96341182708343]}}, {"type": "Feature", "properties": {"norad_id": 38017, "name": "IRIDIUM 33 DEB", "group": "iridium-33-debris", "lat": 42.18970534394678, "lon": 170.86842469913677, "alt_km": 704.0701465611437, "timestamp": "2025-12-09T16:56:36.959899+00:00", "meta": {"OBJECT_NAME": "IRIDIUM 33 DEB", "OBJECT_ID": "1997-051YD", "EPOCH": "2025-12-09T11:46:33.974400", "MEAN_MOTION": 14.48798155, "ECCENTRICITY": 0.0092263, "INCLINATION": 86.3416, "RA_OF_ASC_NODE": 167.6374, "ARG_OF_PERICENTER": 113.885, "MEAN_ANOMALY": 247.2055, "EPHEMERIS_TYPE": 0, "CLASSIFICATION_TYPE": "U", "NORAD_CAT_ID": 38017, "ELEMENT_SET_NO": 999, "REV_AT_EPOCH": 61355, "BSTAR": 0.0070759, "MEAN_MOTION_DOT": 0.00028304, "MEAN_MOTION_DDOT": 0}, "tle": {"line1": "1 38017U 97051YD  25343.49067100  .00028304  00000+0  70759-2 0  9991", "line2": "2 38017  86.3416 167.6374 0092263 113.8850 247.2055 14.48798155613558"}}, "geometry": {"type": "Point", "coordinates": [170.86842469913677, 42.18970534394678]}}, {"type": "Feature", "properties": {"norad_id": 38022, "name": "IRIDIUM 33 DEB", "group": "iridium-33-debris", "lat": -86.03144287800393, "lon": -92.06669183780862, "alt_km": 791.2458227187135, "timestamp": "2025-12-09T16:56:36.959910+00:00", "meta": {"OBJECT_NAME": "IRIDIUM 33 DEB", "OBJECT_ID": "1997-051YJ", "EPOCH": "2025-12-07T08:42:47.311776", "MEAN_MOTION": 14.41201446, "ECCENTRICITY": 0.00469795, "INCLINATION": 86.2687, "RA_OF_ASC_NODE": 18.7976, "ARG_OF_PERICENTER": 67.6005, "MEAN_ANOMALY": 293.0162, "EPHEMERIS_TYPE": 0, "CLASSIFICATION_TYPE": "U", "NORAD_CAT_ID": 38022, "ELEMENT_SET_NO": 999, "REV_AT_EPOCH": 69116, "BSTAR": 0.0015997038, "MEAN_MOTION_DOT": 5.249e-05, "MEAN_MOTION_DDOT": 0}, "tle": {"line1": "1 38022U 97051YJ  25341.36304759  .00005249  00000+0  15997-2 0  9991", "line2": "2 38022  86.2687  18.7976 0046979  67.6005 293.0162 14.41201446691164"}}, "geometry": {"type": "Point", "coordinates": [-92.06669183780862, -86.03144287800393]}}, {"type": "Feature", "properties": {"norad_id": 38028, "name": "IRIDIUM 33 DEB", "group": "iridium-33-debris", "lat": -1.7377707039427253, "lon": 1.4762084156815565, "alt_km": 755.8264942044916, "timestamp": "2025-12-09T16:56:36.959920+00:00", "meta": {"OBJECT_NAME": "IRIDIUM 33 DEB", "OBJECT_ID": "1997-051YQ", "EPOCH": "2025-12-09T08:38:54.868128", "MEAN_MOTION": 14.46171938, "ECCENTRICITY": 0.003018, "INCLINATION": 86.3256, "RA_OF_ASC_NODE": 1.7381, "ARG_OF_PERICENTER": 131.6061, "MEAN_ANOMALY": 228.7734, "EPHEMERIS_TYPE": 0, "CLASSIFICATION_TYPE": "U", "NORAD_CAT_ID": 38028, "ELEMENT_SET_NO": 999, "REV_AT_EPOCH": 65446, "BSTAR": 0.00044645, "MEAN_MOTION_DOT": 1.624e-05, "MEAN_MOTION_DDOT": 0}, "tle": {"line1": "1 38028U 97051YQ  25343.36035727  .00001624  00000+0  44645-3 0  9991", "line2": "2 38028  86.3256   1.7381 0030180 131.6061 228.7734 14.46171938654465"}}, "geometry": {"type": "Point", "coordinates": [1.4762084156815565, -1.7377707039427253]}}, {"type": "Feature", "properties": {"norad_id": 38228, "name": "IRIDIUM 33 DEB", "group": "iridium-33-debris", "lat": 41.548704516239376, "lon": -133.531944985188, "alt_km": 775.1887248769162, "timestamp": "2025-12-09T16:56:36.959930+00:00", "meta": {"OBJECT_NAME": "IRIDIUM 33 DEB", "OBJECT_ID": "1997-051ZC", "EPOCH": "2025-12-08T11:59:08.255904", "MEAN_MOTION": 14.27257685, "ECCENTRICITY": 0.00637921, "INCLINATION": 86.2952, "RA_OF_ASC_NODE": 50.2726, "ARG_OF_PERICENTER": 203.1298, "MEAN_ANOMALY": 220.077, "EPHEMERIS_TYPE": 0, "CLASSIFICATION_TYPE": "U", "NORAD_CAT_ID": 38228, "ELEMENT_SET_NO": 999, "REV_AT_EPOCH": 84721, "BSTAR": 0.00059886698, "MEAN_MOTION_DOT": 1.514e-05, "MEAN_MOTION_DDOT": 0}, "tle": {"line1": "1 38228U 97051ZC  25342.49940111  .00001514  00000+0  59887-3 0  9990", "line2": "2 38228  86.2952  50.2726 0063792 203.1298 220.0770 14.27257685847218"}}, "geometry": {"type": "Point", "coordinates": [-133.531944985188, 41.548704516239376]}}, {"type": "Feature", "properties": {"norad_id": 38241, "name": "IRIDIUM 33 DEB", "group": "iridium-33-debris", "lat": 59.94372901201116, "lon": 165.5567025922308, "alt_km": 701.3263382767391, "timestamp": "2025-12-09T16:56:36.959941+00:00", "meta": {"OBJECT_NAME": "IRIDIUM 33 DEB", "OBJECT_ID": "1997-051ZR", "EPOCH": "2025-12-05T18:18:10.298016", "MEAN_MOTION": 14.54799988, "ECCENTRICITY": 0.00056722, "INCLINATION": 86.3224, "RA_OF_ASC_NODE": 353.6772, "ARG_OF_PERICENTER": 87.2865, "MEAN_ANOMALY": 272.8992, "EPHEMERIS_TYPE": 0, "CLASSIFICATION_TYPE": "U", "NORAD_CAT_ID": 38241, "ELEMENT_SET_NO": 999, "REV_AT_EPOCH": 60099, "BSTAR": 0.0014749391, "MEAN_MOTION_DOT": 6.345e-05, "MEAN_MOTION_DDOT": 0}, "tle": {"line1": "1 38241U 97051ZR  25339.76261919  .00006345  00000+0  14749-2 0  9997", "line2": "2 38241  86.3224 353.6772 0005672  87.2865 272.8992 14.54799988600991"}}, "geometry": {"type": "Point", "coordinates": [165.5567025922308, 59.94372901201116]}}, {"type": "Feature", "properties": {"norad_id": 38474, "name": "IRIDIUM 33 DEB", "group": "iridium-33-debris", "lat": -61.52993665029882, "lon": 4.612106117355935, "alt_km": 749.325600090473, "timestamp": "2025-12-09T16:56:36.959952+00:00", "meta": {"OBJECT_NAME": "IRIDIUM 33 DEB", "OBJECT_ID": "1997-051AAB", "EPOCH": "2025-12-08T08:07:09.463872", "MEAN_MOTION": 14.50663948, "ECCENTRICITY": 0.00281226, "INCLINATION": 86.3436, "RA_OF_ASC_NODE": 11.9798, "ARG_OF_PERICENTER": 101.673, "MEAN_ANOMALY": 258.7634, "EPHEMERIS_TYPE": 0, "CLASSIFICATION_TYPE": "U", "NORAD_CAT_ID": 38474, "ELEMENT_SET_NO": 999, "REV_AT_EPOCH": 65254, "BSTAR": 0.0008115799, "MEAN_MOTION_DOT": 3.222e-05, "MEAN_MOTION_DDOT": 0}, "tle": {"line1": "1 38474U 97051AAB 25342.33830398  .00003222  00000+0  81158-3 0  9995", "line2": "2 38474  86.3436  11.9798 0028122 101.6730 258.7634 14.50663948652549"}}, "geometry": {"type": "Point", "coordinates": [4.612106117355935, -61.52993665029882]}}, {"type": "Feature", "properties": {"norad_id": 39777, "name": "IRIDIUM 33 DEB", "group": "iridium-33-debris", "lat": -75.95884867684516, "lon": 160.11035817947155, "alt_km": 709.8005521843434, "timestamp": "2025-12-09T16:56:36.959962+00:00", "meta": {"OBJECT_NAME": "IRIDIUM 33 DEB", "OBJECT_ID": "1997-051AAJ", "EPOCH": "2025-12-09T12:20:58.658784", "MEAN_MOTION": 14.56304197, "ECCENTRICITY": 0.0059711, "INCLINATION": 85.9626, "RA_OF_ASC_NODE": 176.6076, "ARG_OF_PERICENTER": 197.4862, "MEAN_ANOMALY": 162.4291, "EPHEMERIS_TYPE": 0, "CLASSIFICATION_TYPE": "U", "NORAD_CAT_ID": 39777, "ELEMENT_SET_NO": 999, "REV_AT_EPOCH": 60138, "BSTAR": 0.0037431, "MEAN_MOTION_DOT": 0.00017025, "MEAN_MOTION_DDOT": 0}, "tle": {"line1": "1 39777U 97051AAJ 25343.51456781  .00017025  00000+0  37431-2 0  9993", "line2": "2 39777  85.9626 176.6076 0059711 197.4862 162.4291 14.56304197601387"}}, "geometry": {"type": "Point", "coordinates": [160.11035817947155, -75.95884867684516]}}]}